STARLINK-1657           
1 46354U 20062AF  20344.58334491 -.00020231  00000-0 -13733-2 0  9991
2 46354  53.0005 338.3556 0001478  68.5249  70.9872 15.05578406 15688
STARLINK-1661           
1 46355U 20062AG  20344.58334491 -.00025125  00000-0 -17099-2 0  9998
2 46355  53.0008 338.3529 0001553  57.8383 225.6700 15.05609735 15696
STARLINK-1665           
1 46356U 20062AH  20344.58334491 -.00023517  00000-0 -15995-2 0  9995
2 46356  53.0009 338.3513 0001701  66.7689 162.7147 15.05596040 15694
STARLINK-1666           
1 46357U 20062AJ  20344.58334491 -.01127454  00000-0 -76256-1 0  9998
2 46357  53.0009 318.3535 0001576  63.8204 111.1406 15.09118012 15967
STARLINK-1690           
1 46358U 20062AK  20344.58334491 -.00026754  00000-0 -18234-2 0  9992
2 46358  53.0066 338.3157 0001470  66.9716 270.4944 15.05590782 15698
STARLINK-1707           
1 46359U 20062AL  20344.58334491  .00010658  00000-0  12207-3 0  9992
2 46359  52.9970 313.9391 0002028  29.4363 261.0333 15.62753903 16027
STARLINK-1713           
1 46360U 20062AM  20344.58334491  .00010180  00000-0  11685-3 0  9993
2 46360  52.9981 313.2174 0002315  15.2494 265.0605 15.62759319 16034
STARLINK-1722           
1 46361U 20062AN  20344.58334491  .00011332  00000-0  12942-3 0  9991
2 46361  52.9975 313.9301 0002556  13.0479 279.9760 15.62752893  1774
STARLINK-1726           
1 46362U 20062AP  20344.58334491 -.00000348  00000-0  20539-5 0  9991
2 46362  52.9976 313.2260 0002392  21.4893 253.6430 15.62751797 16034
STARLINK-1739           
1 46363U 20062AQ  20344.58334491 -.00074794  00000-0 -81628-3 0  9993
2 46363  52.9992 313.9619 0002139  19.3655 258.3579 15.62819494 16001
STARLINK-1763           
1 46364U 20062AR  20344.58334491  .00007294  00000-0  85418-4 0  9995
2 46364  52.9974 313.2386 0001725  31.2735 241.4121 15.62755150 16035
STARLINK-1550           
1 46365U 20062AS  20344.58334491  .00008480  00000-0  98402-4 0  9991
2 46365  52.9993 313.9356 0002144  17.0048 269.6260 15.62740126 16006
STARLINK-1651           
1 46366U 20062AT  20344.58334491 -.00060885  00000-0 -66488-3 0  9999
2 46366  52.9966 313.9346 0002428  20.8457 270.9097 15.62717829 16026
STARLINK-1652           
1 46367U 20062AU  20344.58334491 -.00021153  00000-0 -14362-2 0  9998
2 46367  53.0002 338.3565 0001548  57.9078 135.5791 15.05598483 15673
STARLINK-1658           
1 46368U 20062AV  20344.58334491 -.01048734  00000-0 -65211-1 0  9992
2 46368  52.9953 318.2765 0001345  63.0780 333.4366 15.11937419 15972
STARLINK-1662           
1 46369U 20062AW  20344.58334491 -.01126781  00000-0 -77131-1 0  9996
2 46369  53.0031 318.3610 0001568  62.3567  74.2406 15.08680580 15968
STARLINK-1670           
1 46370U 20062AX  20344.58334491 -.00000378  00000-0 -64718-5 0  9991
2 46370  52.9968 318.3394 0001444  70.4733 190.1058 15.06389956 15966
STARLINK-1688           
1 46371U 20062AY  20344.58334491 -.00028791  00000-0 -19213-2 0  9998
2 46371  52.9960 318.3398 0001447  72.9563 227.6148 15.06407352 15972
STARLINK-1689           
1 46372U 20062AZ  20344.58334491 -.00025643  00000-0 -17466-2 0  9990
2 46372  53.0008 338.3450 0001424  66.9245 234.5474 15.05590807 15699
STARLINK-1691           
1 46373U 20062BA  20344.58334491 -.00486040  00000-0 -34226-1 0  9995
2 46373  53.0001 318.3397 0001426  64.0142 276.3600 15.06744733 15974
STARLINK-1711           
1 46374U 20062BB  20344.58334491 -.00000525  00000-0  11494-6 0  9992
2 46374  52.9989 313.9609 0002209  24.8321 254.1153 15.62752034 16016
STARLINK-1724           
1 46375U 20062BC  20344.58334491 -.00097275  00000-0 -10651-2 0  9992
2 46375  52.9972 313.9286 0002831  19.6755 274.5463 15.62845778 16023
STARLINK-1742           
1 46376U 20062BD  20344.58334491  .00012273  00000-0  13967-3 0  9990
2 46376  52.9973 313.9352 0002463 319.7339 329.4626 15.62751976 16029
STARLINK-1745           
1 46377U 20062BE  20344.58334491 -.00000724  00000-0 -20562-5 0  9992
2 46377  52.9973 313.2239 0002462  20.3833 256.0206 15.62751988 16033
STARLINK-1751           
1 46378U 20062BF  20344.58334491 -.00072358  00000-0 -79034-3 0  9991
2 46378  52.9983 313.2053 0001543  32.4206 251.7656 15.62786884 16030
STARLINK-1756           
1 46379U 20062BG  20344.58334491 -.00061728  00000-0 -67199-3 0  9990
2 46379  52.9976 313.9583 0003276   4.3208 269.6203 15.62798544 16024
STARLINK-1758           
1 46380U 20062BH  20344.58334491 -.01128962  00000-0 -75665-1 0  9992
2 46380  52.9999 318.3559 0001508  70.4984 123.0217 15.09452591 15964
STARLINK-1768           
1 46381U 20062BJ  20344.58334491  .00009086  00000-0  10497-3 0  9999
2 46381  52.9976 313.9313 0002050  21.2970 275.4872 15.62749351 16020
STARLINK-1769           
1 46382U 20062BK  20344.58334491 -.00075011  00000-0 -82207-3 0  9991
2 46382  52.9969 313.2159 0002208  19.8073 261.7898 15.62714168 16019
STARLINK-1770           
1 46383U 20062BL  20344.58334491 -.00000320  00000-0 -27621-5 0  9994
2 46383  52.9958 338.3680 0001441  70.2199 357.2375 15.05582036  1764
STARLINK-1771           
1 46384U 20062BM  20344.58334491 -.00000261  00000-0  12925-5 0  9999
2 46384  52.9966 338.3683 0001449  69.1385 340.3189 15.05582069  1761
GAOFEN 11-2             
1 46396U 20064A   20344.59623843  .00092005  40275-5  39094-3 0  9990
2 46396  97.3331  96.8834 0283803 194.6652 343.8584 15.44579786 14355
JILIN-01 GAOFEN 3B      
1 46454U 20065A   20344.53174361  .00000553  00000-0  38992-4 0  9997
2 46454  97.5252  38.6026 0013945 356.1182 111.2736 15.08929196 12899
JILIN-01 GAOFEN 3C      
1 46455U 20065B   20344.58062308  .00001259  00000-0  83368-4 0  9991
2 46455  97.5205  38.6395 0013976   4.0782 101.8202 15.09061512 12901
JILIN-01 GAOFEN 3D      
1 46456U 20065C   20344.57791648  .00001393  00000-0  91339-4 0  9993
2 46456  97.5306  38.7474 0013031   4.9154 101.0352 15.09247530 12901
JILIN-01 GAOFEN 3E      
1 46457U 20065D   20344.57781917  .00001398  00000-0  92095-4 0  9997
2 46457  97.5259  38.6994 0013443   6.7513  99.1887 15.09066700 12909
JILIN-01 GAOFEN 3F      
1 46458U 20065E   20344.56661414  .00001495  00000-0  97106-4 0  9992
2 46458  97.5193  38.6380 0014131   5.0088 100.9201 15.09487280 12901
JILIN-01 GAOFEN 3G      
1 46459U 20065F   20344.56760258  .00001488  00000-0  97181-4 0  9994
2 46459  97.5325  38.7783 0014882   8.8165  97.1166 15.09277932 12905
JILIN-01 GAOFEN 3H      
1 46460U 20065G   20344.56244201  .00001415  00000-0  91539-4 0  9992
2 46460  97.5209  38.6606 0014574   4.0853 101.8426 15.09705080 12903
JILIN-01 GAOFEN 3I      
1 46461U 20065H   20344.56137669  .00001396  00000-0  90094-4 0  9995
2 46461  97.5299  38.7663 0014301   4.5274 105.1660 15.09837092 12903
JILIN-01 GAOFEN 3J      
1 46462U 20065J   20344.55516216  .00001209  00000-0  78331-4 0  9997
2 46462  97.5254  38.7196 0014804   6.4265 103.2525 15.09912651 12909
HAIYANG-2C              
1 46469U 20066A   20344.58758831 -.00000056  00000-0  23325-4 0  9992
2 46469  65.9944 193.6838 0007673 233.1792 126.8572 13.83373345 10985
HJ-2A                   
1 46478U 20067A   20344.59077244  .00000160  00000-0  30446-4 0  9993
2 46478  98.0410  59.5375 0018067 133.5864 226.6857 14.76457124 10838
HJ-2B                   
1 46479U 20067B   20344.55712445  .00000178  00000-0  32955-4 0  9995
2 46479  98.0424  59.5936 0024142 135.2089 225.1074 14.76458820 10835
GONETS-M 17             
1 46486U 20068A   20344.47223495  .00000015  00000-0  34750-4 0  9992
2 46486  82.4964 161.4383 0024051 110.5225 249.8442 12.42887924  8948
GONETS-M 18             
1 46487U 20068B   20344.44684226  .00000033  00000-0  16232-3 0  9997
2 46487  82.4913 161.3832 0021085 108.7630 251.5735 12.42817795  8937
GONETS-M 19             
1 46488U 20068C   20344.50084411  .00000038  00000-0  20121-3 0  9992
2 46488  82.4942 161.3319 0014560 122.3688 237.8792 12.42871908  8953
MEZNSAT                 
1 46489U 20068D   20344.50914604  .00001455  00000-0  11043-3 0  9996
2 46489  97.6779 277.3875 0019126   2.5238 119.5491 15.03662110 10811
YARILO 1                
1 46490U 20068E   20344.62187516  .00001881  00000-0  14153-3 0  9993
2 46490  97.6774 277.4939 0018806   3.8633 356.2719 15.03630109 10835
YARILO 2                
1 46491U 20068F   20344.49058744  .00001717  00000-0  12980-3 0  9993
2 46491  97.6767 277.3584 0018474   5.2162 354.9202 15.03584838 10814
LACUNASAT-3             
1 46492U 20068G   20344.51321170  .00001846  00000-0  13920-3 0  9991
2 46492  97.6780 277.3834 0018960   3.4615 116.1479 15.03576623 10795
DEKART                  
1 46493U 20068H   20344.62688151  .00001407  00000-0  10744-3 0  9993
2 46493  97.6764 277.4870 0018939   4.4729 355.6663 15.03488219 10813
NORBI                   
1 46494U 20068J   20344.63109814  .00001798  00000-0  13627-3 0  9995
2 46494  97.6759 277.4792 0018771   5.5158 354.6271 15.03409545 10812
SALSAT                  
1 46495U 20068K   20344.63596079  .00001536  00000-0  11751-3 0  9995
2 46495  97.6752 277.4704 0017484 358.3380   1.7786 15.03286706 10818
ICEYE-X7                
1 46496U 20068L   20344.54104617  .00000224  00000-0  21210-4 0  9994
2 46496  97.6736 277.3307 0016913   4.4936 110.5231 15.02931244 10795
ICEYE-X6                
1 46497U 20068M   20344.54228433  .00000127  00000-0  14043-4 0  9996
2 46497  97.6756 277.3473 0016775   4.6707 110.2362 15.02901113 10790
KEPLER-5 (AMIDALA)      
1 46498U 20068N   20344.41372017  .00001336  00000-0  10529-3 0  9998
2 46498  97.6772 277.1423 0014147  19.9700 340.2077 15.02409058 10772
KEPLER-4 (ANTILLES)     
1 46499U 20068P   20344.54906510  .00001613  00000-0  12627-3 0  9993
2 46499  97.6775 277.2695 0013901  19.6601 340.5149 15.02382851 10743
LEMUR-2-SLICERS         
1 46500U 20068Q   20344.54987357  .00002766  00000-0  21296-3 0  9996
2 46500  97.6773 277.2649 0013633  20.3072 339.8669 15.02422742 10748
